{
    "links": {
        "self": "http://www.neowsapp.com/rest/v1/neo/3603126?api_key=iIulBulltgU6a56xZRHN4H3l9WmuAYTsLGpBGhQ2"
    },
    "id": "3603126",
    "neo_reference_id": "3603126",
    "name": "(2012 HJ31)",
    "designation": "2012 HJ31",
    "nasa_jpl_url": "http://ssd.jpl.nasa.gov/sbdb.cgi?sstr=3603126",
    "absolute_magnitude_h": 24.5,
    "estimated_diameter": {
        "kilometers": {
            "estimated_diameter_min": 0.0334622374,
            "estimated_diameter_max": 0.0748238376
        },
        "meters": {
            "estimated_diameter_min": 33.4622374455,
            "estimated_diameter_max": 74.8238376074
        },
        "miles": {
            "estimated_diameter_min": 0.0207924639,
            "estimated_diameter_max": 0.0464933628
        },
        "feet": {
            "estimated_diameter_min": 109.7842471007,
            "estimated_diameter_max": 245.4850393757
        }
    },
    "is_potentially_hazardous_asteroid": false,
    "close_approach_data": [
        {
            "close_approach_date": "2012-04-13",
            "close_approach_date_full": "2012-Apr-13 10:14",
            "epoch_date_close_approach": 1334312040000,
            "relative_velocity": {
                "kilometers_per_second": "9.466965814",
                "kilometers_per_hour": "34081.0769305082",
                "miles_per_hour": "21176.6558294038"
            },
            "miss_distance": {
                "astronomical": "0.0596609772",
                "lunar": "23.2081201308",
                "kilometers": "8925155.111238564",
                "miles": "5545834.2223736232"
            },
            "orbiting_body": "Earth"
        }
    ],
    "orbital_data": {
        "orbit_id": "7",
        "orbit_determination_date": "2017-04-06 08:49:55",
        "first_observation_date": "2012-04-28",
        "last_observation_date": "2012-05-03",
        "data_arc_in_days": 5,
        "observations_used": 23,
        "orbit_uncertainty": "9",
        "minimum_orbit_intersection": ".0522899",
        "jupiter_tisserand_invariant": "3.257",
        "epoch_osculation": "2456047.5",
        "eccentricity": ".5844348955143881",
        "semi_major_axis": "2.411676333840972",
        "inclination": "5.635935462030547",
        "ascending_node_longitude": "223.5651685472355",
        "orbital_period": "1367.971215837747",
        "perihelion_distance": "1.002208527658101",
        "perihelion_argument": "311.9980731333306",
        "aphelion_distance": "3.821144140023843",
        "perihelion_time": "2456008.751978242098",
        "mean_anomaly": "10.19706238797002",
        "mean_motion": ".2631634319728983",
        "equinox": "J2000",
        "orbit_class": {
            "orbit_class_type": "APO",
            "orbit_class_description": "Near-Earth asteroid orbits which cross the Earth’s orbit similar to that of 1862 Apollo",
            "orbit_class_range": "a (semi-major axis) > 1.0 AU; q (perihelion) < 1.017 AU"
        }
    },
    "is_sentry_object": false
}